ATLAS CENTAUR R/B       
1 06155U 72065B   26079.16623322  .00001135  00000+0  15778-3 0  9996
2 06155  35.0005 244.3554 0032867  98.3193 262.1236 14.77715064842815
SL-8 R/B                
1 08459U 75112B   26079.14563052  .00000205  00000+0  76043-4 0  9992
2 08459  74.0637 359.6795 0014447  88.5378 271.7431 14.38209542633373
SL-3 R/B                
1 10114U 77057B   26079.14211002  .00009474  00000+0  19756-3 0  9992
2 10114  97.5782 251.5263 0006285 240.4920 119.5702 15.45774876669946
SEASAT 1                
1 10967U 78064A   26079.14860528  .00000179  00000+0  88390-4 0  9994
2 10967 108.0088 147.4458 0002503 281.1306  78.9558 14.46168310508025
SL-14 R/B               
1 11267U 79011B   26079.11041087  .00000555  00000+0  52190-4 0  9996
2 11267  82.5204  86.6794 0016740  27.9850 332.2266 14.91920679530335
SL-8 R/B                
1 11574U 79089B   26079.14939345  .00000169  00000+0  58966-4 0  9996
2 11574  74.0672  71.6792 0016978 243.2025 116.7395 14.42356763437611
SL-14 R/B               
1 11672U 80005B   26079.06318354  .00000479  00000+0  45834-4 0  9991
2 11672  82.5125 297.3950 0016942 125.6222 234.6578 14.90941506478035
SL-8 R/B                
1 12139U 81003B   26078.99953646  .00017956  00000+0  45513-3 0  9990
2 12139  82.9357 280.4886 0261431 142.7040 219.2671 15.11391095316231
SL-3 R/B                
1 12465U 81046B   26079.16620404  .00007793  00000+0  17960-3 0  9995
2 12465  81.2279 277.1598 0018731 345.6535  14.4173 15.42235438440048
SL-3 R/B                
1 12904U 81103B   26079.16356548  .00004078  00000+0  17988-3 0  9995
2 12904  81.1604 201.1454 0012429 248.8594 111.1309 15.21493164974825
SL-3 R/B                
1 13068U 82013B   26079.16735492  .00002802  00000+0  12033-3 0  9996
2 13068  81.1750 148.4908 0023209 142.7084 217.5765 15.22108641405943
SL-3 R/B                
1 13154U 82039B   26079.12596738  .00001885  00000+0  11308-3 0  9998
2 13154  81.1580 203.9291 0029206 290.2295  69.5790 15.10135556383218
