CCSDS_OMM_VERS = 2.0
CREATION_DATE  = 
ORIGINATOR     = 

OBJECT_NAME    = ATLAS CENTAUR R/B
OBJECT_ID      = 1972-065B
CENTER_NAME    = EARTH
REF_FRAME      = TEME
TIME_SYSTEM    = UTC
MEAN_ELEMENT_THEORY = SGP/SGP4

EPOCH          = 2026-03-20T03:59:22.550208
MEAN_MOTION    = 14.77715064
ECCENTRICITY   = .0032867
INCLINATION    = 35.0005
RA_OF_ASC_NODE = 244.3554
ARG_OF_PERICENTER = 98.3193
MEAN_ANOMALY   = 262.1236

EPHEMERIS_TYPE = 0
CLASSIFICATION_TYPE = U
NORAD_CAT_ID   = 6155
ELEMENT_SET_NO = 999
REV_AT_EPOCH   = 84281
BSTAR          = .15778E-3
MEAN_MOTION_DOT = .1135E-4
MEAN_MOTION_DDOT = 0

CCSDS_OMM_VERS = 2.0
CREATION_DATE  = 
ORIGINATOR     = 

OBJECT_NAME    = SL-8 R/B
OBJECT_ID      = 1975-112B
CENTER_NAME    = EARTH
REF_FRAME      = TEME
TIME_SYSTEM    = UTC
MEAN_ELEMENT_THEORY = SGP/SGP4

EPOCH          = 2026-03-20T03:29:42.476928
MEAN_MOTION    = 14.38209542
ECCENTRICITY   = .0014447
INCLINATION    = 74.0637
RA_OF_ASC_NODE = 359.6795
ARG_OF_PERICENTER = 88.5378
MEAN_ANOMALY   = 271.7431

EPHEMERIS_TYPE = 0
CLASSIFICATION_TYPE = U
NORAD_CAT_ID   = 8459
ELEMENT_SET_NO = 999
REV_AT_EPOCH   = 63337
BSTAR          = .76043E-4
MEAN_MOTION_DOT = .205E-5
MEAN_MOTION_DDOT = 0

CCSDS_OMM_VERS = 2.0
CREATION_DATE  = 
ORIGINATOR     = 

OBJECT_NAME    = SL-3 R/B
OBJECT_ID      = 1977-057B
CENTER_NAME    = EARTH
REF_FRAME      = TEME
TIME_SYSTEM    = UTC
MEAN_ELEMENT_THEORY = SGP/SGP4

EPOCH          = 2026-03-20T03:24:38.305728
MEAN_MOTION    = 15.45774876
ECCENTRICITY   = .0006285
INCLINATION    = 97.5782
RA_OF_ASC_NODE = 251.5263
ARG_OF_PERICENTER = 240.4920
MEAN_ANOMALY   = 119.5702

EPHEMERIS_TYPE = 0
CLASSIFICATION_TYPE = U
NORAD_CAT_ID   = 10114
ELEMENT_SET_NO = 999
REV_AT_EPOCH   = 66994
BSTAR          = .19756E-3
MEAN_MOTION_DOT = .9474E-4
MEAN_MOTION_DDOT = 0

CCSDS_OMM_VERS = 2.0
CREATION_DATE  = 
ORIGINATOR     = 

OBJECT_NAME    = SEASAT 1
OBJECT_ID      = 1978-064A
CENTER_NAME    = EARTH
REF_FRAME      = TEME
TIME_SYSTEM    = UTC
MEAN_ELEMENT_THEORY = SGP/SGP4

EPOCH          = 2026-03-20T03:33:59.496192
MEAN_MOTION    = 14.46168310
ECCENTRICITY   = .0002503
INCLINATION    = 108.0088
RA_OF_ASC_NODE = 147.4458
ARG_OF_PERICENTER = 281.1306
MEAN_ANOMALY   = 78.9558

EPHEMERIS_TYPE = 0
CLASSIFICATION_TYPE = U
NORAD_CAT_ID   = 10967
ELEMENT_SET_NO = 999
REV_AT_EPOCH   = 50802
BSTAR          = .8839E-4
MEAN_MOTION_DOT = .179E-5
MEAN_MOTION_DDOT = 0

CCSDS_OMM_VERS = 2.0
CREATION_DATE  = 
ORIGINATOR     = 

OBJECT_NAME    = SL-14 R/B
OBJECT_ID      = 1979-011B
CENTER_NAME    = EARTH
REF_FRAME      = TEME
TIME_SYSTEM    = UTC
MEAN_ELEMENT_THEORY = SGP/SGP4

EPOCH          = 2026-03-20T02:38:59.499168
MEAN_MOTION    = 14.91920679
ECCENTRICITY   = .001674
INCLINATION    = 82.5204
RA_OF_ASC_NODE = 86.6794
ARG_OF_PERICENTER = 27.9850
MEAN_ANOMALY   = 332.2266

EPHEMERIS_TYPE = 0
CLASSIFICATION_TYPE = U
NORAD_CAT_ID   = 11267
ELEMENT_SET_NO = 999
REV_AT_EPOCH   = 53033
BSTAR          = .5219E-4
MEAN_MOTION_DOT = .555E-5
MEAN_MOTION_DDOT = 0

CCSDS_OMM_VERS = 2.0
CREATION_DATE  = 
ORIGINATOR     = 

OBJECT_NAME    = SL-8 R/B
OBJECT_ID      = 1979-089B
CENTER_NAME    = EARTH
REF_FRAME      = TEME
TIME_SYSTEM    = UTC
MEAN_ELEMENT_THEORY = SGP/SGP4

EPOCH          = 2026-03-20T03:35:07.594080
MEAN_MOTION    = 14.42356763
ECCENTRICITY   = .0016978
INCLINATION    = 74.0672
RA_OF_ASC_NODE = 71.6792
ARG_OF_PERICENTER = 243.2025
MEAN_ANOMALY   = 116.7395

EPHEMERIS_TYPE = 0
CLASSIFICATION_TYPE = U
NORAD_CAT_ID   = 11574
ELEMENT_SET_NO = 999
REV_AT_EPOCH   = 43761
BSTAR          = .58966E-4
MEAN_MOTION_DOT = .169E-5
MEAN_MOTION_DDOT = 0

CCSDS_OMM_VERS = 2.0
CREATION_DATE  = 
ORIGINATOR     = 

OBJECT_NAME    = SL-14 R/B
OBJECT_ID      = 1980-005B
CENTER_NAME    = EARTH
REF_FRAME      = TEME
TIME_SYSTEM    = UTC
MEAN_ELEMENT_THEORY = SGP/SGP4

EPOCH          = 2026-03-20T01:30:59.057856
MEAN_MOTION    = 14.90941506
ECCENTRICITY   = .0016942
INCLINATION    = 82.5125
RA_OF_ASC_NODE = 297.3950
ARG_OF_PERICENTER = 125.6222
MEAN_ANOMALY   = 234.6578

EPHEMERIS_TYPE = 0
CLASSIFICATION_TYPE = U
NORAD_CAT_ID   = 11672
ELEMENT_SET_NO = 999
REV_AT_EPOCH   = 47803
BSTAR          = .45834E-4
MEAN_MOTION_DOT = .479E-5
MEAN_MOTION_DDOT = 0

CCSDS_OMM_VERS = 2.0
CREATION_DATE  = 
ORIGINATOR     = 

OBJECT_NAME    = SL-8 R/B
OBJECT_ID      = 1981-003B
CENTER_NAME    = EARTH
REF_FRAME      = TEME
TIME_SYSTEM    = UTC
MEAN_ELEMENT_THEORY = SGP/SGP4

EPOCH          = 2026-03-19T23:59:19.950144
MEAN_MOTION    = 15.11391095
ECCENTRICITY   = .0261431
INCLINATION    = 82.9357
RA_OF_ASC_NODE = 280.4886
ARG_OF_PERICENTER = 142.7040
MEAN_ANOMALY   = 219.2671

EPHEMERIS_TYPE = 0
CLASSIFICATION_TYPE = U
NORAD_CAT_ID   = 12139
ELEMENT_SET_NO = 999
REV_AT_EPOCH   = 31623
BSTAR          = .45513E-3
MEAN_MOTION_DOT = .17956E-3
MEAN_MOTION_DDOT = 0

CCSDS_OMM_VERS = 2.0
CREATION_DATE  = 
ORIGINATOR     = 

OBJECT_NAME    = SL-3 R/B
OBJECT_ID      = 1981-046B
CENTER_NAME    = EARTH
REF_FRAME      = TEME
TIME_SYSTEM    = UTC
MEAN_ELEMENT_THEORY = SGP/SGP4

EPOCH          = 2026-03-20T03:59:20.029056
MEAN_MOTION    = 15.42235438
ECCENTRICITY   = .0018731
INCLINATION    = 81.2279
RA_OF_ASC_NODE = 277.1598
ARG_OF_PERICENTER = 345.6535
MEAN_ANOMALY   = 14.4173

EPHEMERIS_TYPE = 0
CLASSIFICATION_TYPE = U
NORAD_CAT_ID   = 12465
ELEMENT_SET_NO = 999
REV_AT_EPOCH   = 44004
BSTAR          = .1796E-3
MEAN_MOTION_DOT = .7793E-4
MEAN_MOTION_DDOT = 0

CCSDS_OMM_VERS = 2.0
CREATION_DATE  = 
ORIGINATOR     = 

OBJECT_NAME    = SL-3 R/B
OBJECT_ID      = 1981-103B
CENTER_NAME    = EARTH
REF_FRAME      = TEME
TIME_SYSTEM    = UTC
MEAN_ELEMENT_THEORY = SGP/SGP4

EPOCH          = 2026-03-20T03:55:32.057472
MEAN_MOTION    = 15.21493164
ECCENTRICITY   = .0012429
INCLINATION    = 81.1604
RA_OF_ASC_NODE = 201.1454
ARG_OF_PERICENTER = 248.8594
MEAN_ANOMALY   = 111.1309

EPHEMERIS_TYPE = 0
CLASSIFICATION_TYPE = U
NORAD_CAT_ID   = 12904
ELEMENT_SET_NO = 999
REV_AT_EPOCH   = 97482
BSTAR          = .17988E-3
MEAN_MOTION_DOT = .4078E-4
MEAN_MOTION_DDOT = 0

CCSDS_OMM_VERS = 2.0
CREATION_DATE  = 
ORIGINATOR     = 

OBJECT_NAME    = SL-3 R/B
OBJECT_ID      = 1982-013B
CENTER_NAME    = EARTH
REF_FRAME      = TEME
TIME_SYSTEM    = UTC
MEAN_ELEMENT_THEORY = SGP/SGP4

EPOCH          = 2026-03-20T04:00:59.465088
MEAN_MOTION    = 15.22108641
ECCENTRICITY   = .0023209
INCLINATION    = 81.1750
RA_OF_ASC_NODE = 148.4908
ARG_OF_PERICENTER = 142.7084
MEAN_ANOMALY   = 217.5765

EPHEMERIS_TYPE = 0
CLASSIFICATION_TYPE = U
NORAD_CAT_ID   = 13068
ELEMENT_SET_NO = 999
REV_AT_EPOCH   = 40594
BSTAR          = .12033E-3
MEAN_MOTION_DOT = .2802E-4
MEAN_MOTION_DDOT = 0

CCSDS_OMM_VERS = 2.0
CREATION_DATE  = 
ORIGINATOR     = 

OBJECT_NAME    = SL-3 R/B
OBJECT_ID      = 1982-039B
CENTER_NAME    = EARTH
REF_FRAME      = TEME
TIME_SYSTEM    = UTC
MEAN_ELEMENT_THEORY = SGP/SGP4

EPOCH          = 2026-03-20T03:01:23.581632
MEAN_MOTION    = 15.10135556
ECCENTRICITY   = .0029206
INCLINATION    = 81.1580
RA_OF_ASC_NODE = 203.9291
ARG_OF_PERICENTER = 290.2295
MEAN_ANOMALY   = 69.5790

EPHEMERIS_TYPE = 0
CLASSIFICATION_TYPE = U
NORAD_CAT_ID   = 13154
ELEMENT_SET_NO = 999
REV_AT_EPOCH   = 38321
BSTAR          = .11308E-3
MEAN_MOTION_DOT = .1885E-4
MEAN_MOTION_DDOT = 0

